[{"OBJECT_NAME":"EOSSAT-1","OBJECT_ID":"2023-001AW","EPOCH":"2026-03-09T17:40:07.010400","MEAN_MOTION":15.32339828,"ECCENTRICITY":0.00112629,"INCLINATION":97.3357,"RA_OF_ASC_NODE":130.2294,"ARG_OF_PERICENTER":110.3168,"MEAN_ANOMALY":249.9285,"EPHEMERIS_TYPE":0,"CLASSIFICATION_TYPE":"U","NORAD_CAT_ID":55053,"ELEMENT_SET_NO":999,"REV_AT_EPOCH":17668,"BSTAR":0.00024844399,"MEAN_MOTION_DOT":7.695e-5,"MEAN_MOTION_DDOT":0},{"OBJECT_NAME":"STARLINK-32436","OBJECT_ID":"2024-171R","EPOCH":"2026-03-09T21:19:21.430272","MEAN_MOTION":15.30184208,"ECCENTRICITY":9.889e-5,"INCLINATION":53.1614,"RA_OF_ASC_NODE":321.1848,"ARG_OF_PERICENTER":96.2543,"MEAN_ANOMALY":263.857,"EPHEMERIS_TYPE":0,"CLASSIFICATION_TYPE":"U","NORAD_CAT_ID":61215,"ELEMENT_SET_NO":999,"REV_AT_EPOCH":8240,"BSTAR":6.6157322e-5,"MEAN_MOTION_DOT":1.6e-5,"MEAN_MOTION_DDOT":0}]
